NORAD_CAT_ID,OBJECT_NAME,OBJECT_TYPE,EPOCH,MEAN_MOTION,ECCENTRICITY,INCLINATION,RA_OF_ASC_NODE,ARG_OF_PERICENTER,MEAN_ANOMALY,BSTAR,MEAN_MOTION_DOT,MEAN_MOTION_DDOT,TLE_LINE0,TLE_LINE1,TLE_LINE2,SEMIMAJOR_AXIS,PERIOD,APOGEE,PERIGEE,DECAYED
55671.0,STARLINK-5460,PAYLOAD,2023-08-05 14:00:01,15.51268046,0.0003318,70.0006,35.72,270.7195,143.2829,-0.0011984,-0.00070049,0.0,0 STARLINK-5460,1 55671U 23021AV  23217.58334491 -.00070049  00000-0 -11984-2 0  9991,2 55671  70.0006  35.7200 0003318 270.7195 143.2829 15.51268046 27031,6791.16,92.827,415.278,410.771,0.0
55671.0,STARLINK-5460,PAYLOAD,2023-08-06 06:00:00,15.51210032,0.0003383,70.0005,33.8971,273.4204,262.4276,0.00050147,0.00029386,0.0,0 STARLINK-5460,1 55671U 23021AV  23218.25001157  .00029386  00000-0  50147-3 0  9997,2 55671  70.0005  33.8971 0003383 273.4204 262.4276 15.51210032 27130,6791.329,92.831,415.492,410.897,0.0
55671.0,STARLINK-5460,PAYLOAD,2023-08-06 22:00:00,15.51230796,0.0003395,70.0008,32.0744,276.8367,20.829,0.00017485,0.00010121,0.0,0 STARLINK-5460,1 55671U 23021AV  23218.91667824  .00010121  00000-0  17485-3 0  9994,2 55671  70.0008  32.0744 0003395 276.8367  20.8290 15.51230796 27234,6791.268,92.83,415.439,410.828,0.0
55671.0,STARLINK-5460,PAYLOAD,2023-08-07 14:00:01,15.51261511,0.0003382,70.0008,30.2521,269.1177,150.3736,-0.00098426,-0.00057638,0.0,0 STARLINK-5460,1 55671U 23021AV  23219.58334491 -.00057638  00000-0 -98426-3 0  9999,2 55671  70.0008  30.2521 0003382 269.1177 150.3736 15.51261511 27342,6791.179,92.828,415.341,410.747,0.0
55671.0,STARLINK-5460,PAYLOAD,2023-08-07 21:28:58,15.51236128,0.0003063,69.9998,29.4,268.1017,91.9818,-1.7221e-05,-1.177e-05,0.0,0 STARLINK-5460,1 55671U 23021AV  23219.89511957 -.00001177  00000-0 -17221-4 0  9999,2 55671  69.9998  29.4000 0003063 268.1017  91.9818 15.51236128 27399,6791.253,92.829,415.198,411.038,0.0
55671.0,STARLINK-5460,PAYLOAD,2023-08-08 11:24:42,15.51214151,0.0003347,69.9999,27.8133,272.1591,87.9211,-3.7592e-05,-2.371e-05,0.0,0 STARLINK-5460,1 55671U 23021AV  23220.47549104 -.00002371  00000-0 -37592-4 0  9990,2 55671  69.9999  27.8133 0003347 272.1591  87.9211 15.51214151 27480,6791.317,92.831,415.455,410.909,0.0
55671.0,STARLINK-5460,PAYLOAD,2023-08-08 17:36:26,15.50827485,0.0003411,69.9995,27.109,271.7747,88.3049,-0.0015047,-0.0008637,0.0,0 STARLINK-5460,1 55671U 23021AV  23220.73363866 -.00086370  00000-0 -15047-2 0  9998,2 55671  69.9995  27.1090 0003411 271.7747  88.3049 15.50827485 27529,6792.446,92.854,416.628,411.994,0.0
55671.0,STARLINK-5460,PAYLOAD,2023-08-09 02:53:59,15.50483004,0.0003987,69.9994,26.0522,268.9222,91.1507,-0.0025609,-0.0014407,0.0,0 STARLINK-5460,1 55671U 23021AV  23221.12083015 -.00144070  00000-0 -25609-2 0  9994,2 55671  69.9994  26.0522 0003987 268.9222  91.1507 15.50483004 27582,6793.452,92.874,418.025,412.608,0.0
55671.0,STARLINK-5460,PAYLOAD,2023-08-09 14:00:01,15.48883965,0.0003636,70.0005,24.7897,270.0213,149.8046,-0.019494,-0.00965981,0.0,0 STARLINK-5460,1 55671U 23021AV  23221.58334491 -.00965981  00000-0 -19494-1 0  9997,2 55671  70.0005  24.7897 0003636 270.0213 149.8046 15.48883965 27657,6798.127,92.97,422.463,417.52,0.0
55671.0,STARLINK-5460,PAYLOAD,2023-08-10 06:00:00,15.47515134,0.0003386,70.0002,22.9753,270.3245,264.0974,-0.017773,-0.00837854,0.0,0 STARLINK-5460,1 55671U 23021AV  23222.25001157 -.00837854  00000-0 -17773-1 0  9997,2 55671  70.0002  22.9753 0003386 270.3245 264.0974 15.47515134 27755,6802.135,93.052,426.303,421.697,0.0
55671.0,STARLINK-5460,PAYLOAD,2023-08-10 14:00:01,15.46920234,0.0003428,70.0003,22.0697,269.8601,320.665,-0.02065,-0.00956172,0.0,0 STARLINK-5460,1 55671U 23021AV  23222.58334491 -.00956172  00000-0 -20650-1 0  9996,2 55671  70.0003  22.0697 0003428 269.8601 320.6650 15.46920234 27806,6803.879,93.088,428.076,423.411,0.0
55671.0,STARLINK-5460,PAYLOAD,2023-08-11 06:00:00,15.45557055,0.0003432,70.0,20.2605,267.4459,72.9788,-0.018949,-0.00835007,0.0,0 STARLINK-5460,1 55671U 23021AV  23223.25001157 -.00835007  00000-0 -18949-1 0  9992,2 55671  70.0000  20.2605 0003432 267.4459  72.9788 15.45557055 27919,6807.879,93.17,432.08,427.407,0.0
55671.0,STARLINK-5460,PAYLOAD,2023-08-11 14:00:01,15.44961118,0.0003484,70.0003,19.3573,270.9994,123.183,-0.022015,-0.00953094,0.0,0 STARLINK-5460,1 55671U 23021AV  23223.58334491 -.00953094  00000-0 -22015-1 0  9994,2 55671  70.0003  19.3573 0003484 270.9994 123.1830 15.44961118 27965,6809.629,93.206,433.867,429.122,0.0
55671.0,STARLINK-5460,PAYLOAD,2023-08-12 06:00:00,15.4359984,0.0003241,69.9998,17.5534,268.8845,230.5017,-0.02018,-0.0083198,0.0,0 STARLINK-5460,1 55671U 23021AV  23224.25001157 -.00831980  00000-0 -20180-1 0  9999,2 55671  69.9998  17.5534 0003241 268.8845 230.5017 15.43599840 28064,6813.632,93.288,437.706,433.289,0.0
55671.0,STARLINK-5460,PAYLOAD,2023-08-12 14:00:01,15.43007043,0.0003281,70.0002,16.6528,272.2108,278.5821,-0.023283,-0.00943937,0.0,0 STARLINK-5460,1 55671U 23021AV  23224.58334491 -.00943937  00000-0 -23283-1 0  9998,2 55671  70.0002  16.6528 0003281 272.2108 278.5821 15.43007043 28111,6815.377,93.324,439.478,435.006,0.0
55671.0,STARLINK-5460,PAYLOAD,2023-08-13 14:00:01,15.41051109,0.0003473,70.0,13.9566,271.7433,68.6244,-0.024937,-0.00946603,0.0,0 STARLINK-5460,1 55671U 23021AV  23225.58334491 -.00946603  00000-0 -24937-1 0  9999,2 55671  70.0000  13.9566 0003473 271.7433  68.6244 15.41051109 28273,6821.143,93.443,445.377,440.639,0.0
55671.0,STARLINK-5460,PAYLOAD,2023-08-14 14:00:01,15.39092121,0.0003417,70.0003,11.2686,275.1758,207.7279,-0.026563,-0.0094512,0.0,0 STARLINK-5460,1 55671U 23021AV  23226.58334491 -.00945120  00000-0 -26563-1 0  9990,2 55671  70.0003  11.2686 0003417 275.1758 207.7279 15.39092121 28423,6826.93,93.562,451.127,446.462,0.0
55671.0,STARLINK-5460,PAYLOAD,2023-08-15 14:00:01,15.37133952,0.0003379,70.0008,8.5883,273.5078,344.89,-0.028207,-0.009417,0.0,0 STARLINK-5460,1 55671U 23021AV  23227.58334491 -.00941700  00000-0 -28207-1 0  9998,2 55671  70.0008   8.5883 0003379 273.5078 344.8900 15.37133952 28576,6832.726,93.681,456.9,452.283,0.0
55671.0,STARLINK-5460,PAYLOAD,2023-08-15 18:00:00,15.36779598,0.0003399,70.0007,8.1423,279.5319,180.7741,-0.027063,-0.00896996,0.0,0 STARLINK-5460,1 55671U 23021AV  23227.75001157 -.00896996  00000-0 -27063-1 0  9992,2 55671  70.0007   8.1423 0003399 279.5319 180.7741 15.36779598 28602,6833.777,93.702,457.965,453.319,0.0
55671.0,STARLINK-5460,PAYLOAD,2023-08-16 22:00:00,15.3451694,0.0003451,70.0007,5.0268,279.721,148.3856,-0.03019,-0.00927727,0.0,0 STARLINK-5460,1 55671U 23021AV  23228.91667824 -.00927727  00000-0 -30190-1 0  9992,2 55671  70.0007   5.0268 0003451 279.7210 148.3856 15.34516940 28780,6840.493,93.841,464.718,459.997,0.0
55671.0,STARLINK-5460,PAYLOAD,2023-08-18 06:00:02,15.31863117,0.000325,70.001,1.4798,271.6855,313.6852,-0.029942,-0.00852105,0.0,0 STARLINK-5460,1 55671U 23021AV  23230.25002315 -.00852105  00000-0 -29942-1 0  9990,2 55671  70.0010   1.4798 0003250 271.6855 313.6852 15.31863117 28988,6848.391,94.003,472.482,468.03,0.0
55671.0,STARLINK-5460,PAYLOAD,2023-08-18 22:00:00,15.30615887,0.0003391,70.0008,359.7115,278.479,20.7147,-0.035028,-0.00961957,0.0,0 STARLINK-5460,1 55671U 23021AV  23230.91667824 -.00961957  00000-0 -35028-1 0  9993,2 55671  70.0008 359.7115 0003391 278.4790  20.7147 15.30615887 29090,6852.111,94.08,476.299,471.652,0.0
55671.0,STARLINK-5460,PAYLOAD,2023-08-19 14:00:01,15.29295446,0.0003448,70.0011,357.9471,278.0598,91.9763,-0.035554,-0.00927385,0.0,0 STARLINK-5460,1 55671U 23021AV  23231.58335648 -.00927385  00000-0 -35554-1 0  9994,2 55671  70.0011 357.9471 0003448 278.0598  91.9763 15.29295446 29192,6856.054,94.161,480.283,475.555,0.0
55671.0,STARLINK-5460,PAYLOAD,2023-08-20 22:00:00,15.2670314,0.0003325,70.0008,354.4281,281.5287,220.5933,-0.039674,-0.0096574,0.0,0 STARLINK-5460,1 55671U 23021AV  23232.91667824 -.00965740  00000-0 -39674-1 0  9990,2 55671  70.0008 354.4281 0003325 281.5287 220.5933 15.26703140 29390,6863.813,94.321,487.96,483.396,0.0
55671.0,STARLINK-5460,PAYLOAD,2023-08-21 14:00:01,15.25374879,0.0003292,70.001,352.6739,274.8007,288.7163,-0.03964,-0.00929657,0.0,0 STARLINK-5460,1 55671U 23021AV  23233.58334491 -.00929657  00000-0 -39640-1 0  9995,2 55671  70.0010 352.6739 0003292 274.8007 288.7163 15.25374879 29493,6867.797,94.403,491.923,487.401,0.0
55671.0,STARLINK-5460,PAYLOAD,2023-08-22 22:00:00,15.22788488,0.0003463,70.0005,349.1754,275.7496,41.1394,-0.044699,-0.00967293,0.0,0 STARLINK-5460,1 55671U 23021AV  23234.91667824 -.00967293  00000-0 -44699-1 0  9990,2 55671  70.0005 349.1754 0003463 275.7496  41.1394 15.22788488 29700,6875.571,94.563,499.817,495.055,0.0
55671.0,STARLINK-5460,PAYLOAD,2023-08-23 14:00:01,15.21461349,0.0003465,70.0007,347.4314,275.3006,93.5952,-0.044527,-0.00929419,0.0,0 STARLINK-5460,1 55671U 23021AV  23235.58334491 -.00929419  00000-0 -44527-1 0  9993,2 55671  70.0007 347.4314 0003465 275.3006  93.5952 15.21461349 29805,6879.569,94.646,503.818,499.05,0.0
55671.0,STARLINK-5460,PAYLOAD,2023-08-24 22:00:00,15.18873419,0.0003295,70.0002,343.9537,277.2023,186.2921,-0.049999,-0.00964708,0.0,0 STARLINK-5460,1 55671U 23021AV  23236.91667824 -.00964708  00000-0 -49999-1 0  9998,2 55671  70.0002 343.9537 0003295 277.2023 186.2921 15.18873419  6070,6887.381,94.807,511.516,506.977,0.0
55671.0,STARLINK-5460,PAYLOAD,2023-08-25 14:00:01,15.17541727,0.0003297,70.0005,342.2203,275.67,230.4449,-0.049358,-0.00919834,0.0,0 STARLINK-5460,1 55671U 23021AV  23237.58334491 -.00919834  00000-0 -49358-1 0  9992,2 55671  70.0005 342.2203 0003297 275.6700 230.4449 15.17541727  6015,6891.41,94.89,515.547,511.003,0.0
55671.0,STARLINK-5460,PAYLOAD,2023-08-26 00:00:02,15.16734201,0.0003298,70.0004,341.1385,271.8672,349.3497,-0.05164,-0.00938792,0.0,0 STARLINK-5460,1 55671U 23021AV  23238.00002315 -.00938792  00000-0 -51640-1 0  9998,2 55671  70.0004 341.1385 0003298 271.8672 349.3497 15.16734201  5900,6893.856,94.941,517.994,513.447,0.0
